[
    {
        "Altitude(m)": 610405.3124782857,
        "Argument of Periapsis(deg)": 0.0,
        "Eccentricity": 0.0,
        "Inclination(deg)": 60.0,
        "Latitude(deg)": 52.11124246066466,
        "Longitude(deg)": 7.477292052251652,
        "Mean Anomaly(deg)": -245.4545,
        "RAAN(deg)": 335.0,
        "Satellite Name": "Test1 1481",
        "Satellite Number": 1481,
        "Semi-Major Axis(m)": 6980739.136638005,
        "Time(s)": 0
    },
    {
        "Altitude(m)": 610321.8859048766,
        "Argument of Periapsis(deg)": 0.00010418945913296404,
        "Eccentricity": 0.0,
        "Inclination(deg)": 60.0,
        "Latitude(deg)": 51.7459587579622,
        "Longitude(deg)": 8.24618703942529,
        "Mean Anomaly(deg)": -244.83439385453818,
        "RAAN(deg)": 334.99957995086027,
        "Satellite Name": "Test1 1481",
        "Satellite Number": 1481,
        "Semi-Major Axis(m)": 6980739.136638005,
        "Time(s)": 10
    },
    {
        "Altitude(m)": 610237.0951769578,
        "Argument of Periapsis(deg)": 0.0002083789182659281,
        "Eccentricity": 0.0,
        "Inclination(deg)": 60.0,
        "Latitude(deg)": 51.37515596217109,
        "Longitude(deg)": 9.002029522360788,
        "Mean Anomaly(deg)": -244.21428770907633,
        "RAAN(deg)": 334.99915990172053,
        "Satellite Name": "Test1 1481",
        "Satellite Number": 1481,
        "Semi-Major Axis(m)": 6980739.136638005,
        "Time(s)": 20
    },
    {
        "Altitude(m)": 610150.9904751299,
        "Argument of Periapsis(deg)": 0.00031256837739889213,
        "Eccentricity": 0.0,
        "Inclination(deg)": 60.0,
        "Latitude(deg)": 50.99899265780118,
        "Longitude(deg)": 9.745012626258216,
        "Mean Anomaly(deg)": -243.59418156361454,
        "RAAN(deg)": 334.9987398525808,
        "Satellite Name": "Test1 1481",
        "Satellite Number": 1481,
        "Semi-Major Axis(m)": 6980739.136638005,
        "Time(s)": 30
    },
    {
        "Altitude(m)": 610063.6228425133,
        "Argument of Periapsis(deg)": 0.0004167578365318562,
        "Eccentricity": 0.0,
        "Inclination(deg)": 60.0,
        "Latitude(deg)": 50.61762367546957,
        "Longitude(deg)": 10.475337178279451,
        "Mean Anomaly(deg)": -242.9740754181527,
        "RAAN(deg)": 334.99831980344106,
        "Satellite Name": "Test1 1481",
        "Satellite Number": 1481,
        "Semi-Major Axis(m)": 6980739.136638005,
        "Time(s)": 40
    },
    {
        "Altitude(m)": 609975.0441601088,
        "Argument of Periapsis(deg)": 0.0005209472956648203,
        "Eccentricity": 0.0,
        "Inclination(deg)": 60.0,
        "Latitude(deg)": 50.23120006676331,
        "Longitude(deg)": 11.193209648903492,
        "Mean Anomaly(deg)": -242.3539692726908,
        "RAAN(deg)": 334.9978997543013,
        "Satellite Name": "Test1 1481",
        "Satellite Number": 1481,
        "Semi-Major Axis(m)": 6980739.136638005,
        "Time(s)": 50
    },
    {
        "Altitude(m)": 609885.3071217458,
        "Argument of Periapsis(deg)": 0.0006251367547977843,
        "Eccentricity": 0.0,
        "Inclination(deg)": 60.0,
        "Latitude(deg)": 49.839869093767064,
        "Longitude(deg)": 11.898841676935074,
        "Mean Anomaly(deg)": -241.733863127229,
        "RAAN(deg)": 334.99747970516154,
        "Satellite Name": "Test1 1481",
        "Satellite Number": 1481,
        "Semi-Major Axis(m)": 6980739.136638005,
        "Time(s)": 60
    },
    {
        "Altitude(m)": 609794.4652085965,
        "Argument of Periapsis(deg)": 0.0007293262139307483,
        "Eccentricity": 0.0,
        "Inclination(deg)": 60.0,
        "Latitude(deg)": 49.443774231821,
        "Longitude(deg)": 12.592449663771987,
        "Mean Anomaly(deg)": -241.11375698176715,
        "RAAN(deg)": 334.9970596560218,
        "Satellite Name": "Test1 1481",
        "Satellite Number": 1481,
        "Semi-Major Axis(m)": 6980739.136638005,
        "Time(s)": 70
    },
    {
        "Altitude(m)": 609702.572663275,
        "Argument of Periapsis(deg)": 0.0008335156730637124,
        "Eccentricity": 0.0,
        "Inclination(deg)": 60.0,
        "Latitude(deg)": 49.043055184151065,
        "Longitude(deg)": 13.274252922117993,
        "Mean Anomaly(deg)": -240.49365083630533,
        "RAAN(deg)": 334.99663960688207,
        "Satellite Name": "Test1 1481",
        "Satellite Number": 1481,
        "Semi-Major Axis(m)": 6980739.136638005,
        "Time(s)": 80
    },
    {
        "Altitude(m)": 609609.6844635595,
        "Argument of Periapsis(deg)": 0.0009377051321966765,
        "Eccentricity": 0.0,
        "Inclination(deg)": 60.0,
        "Latitude(deg)": 48.6378479070938,
        "Longitude(deg)": 13.94447340262285,
        "Mean Anomaly(deg)": -239.87354469084354,
        "RAAN(deg)": 334.99621955774234,
        "Satellite Name": "Test1 1481",
        "Satellite Number": 1481,
        "Semi-Major Axis(m)": 6980739.136638005,
        "Time(s)": 90
    },
    {
        "Altitude(m)": 609515.8562957025,
        "Argument of Periapsis(deg)": 0.0010418945913296407,
        "Eccentricity": 0.0,
        "Inclination(deg)": 60.0,
        "Latitude(deg)": 48.22828464471247,
        "Longitude(deg)": 14.603335483048163,
        "Mean Anomaly(deg)": -239.2534385453817,
        "RAAN(deg)": 334.9957995086026,
        "Satellite Name": "Test1 1481",
        "Satellite Number": 1481,
        "Semi-Major Axis(m)": 6980739.136638005,
        "Time(s)": 100
    },
    {
        "Altitude(m)": 609421.1445273672,
        "Argument of Periapsis(deg)": 0.0011460840504626045,
        "Eccentricity": 0.0,
        "Inclination(deg)": 60.0,
        "Latitude(deg)": 47.81449397167655,
        "Longitude(deg)": 15.2510643043665,
        "Mean Anomaly(deg)": -238.63333239991985,
        "RAAN(deg)": 334.99537945946287,
        "Satellite Name": "Test1 1481",
        "Satellite Number": 1481,
        "Semi-Major Axis(m)": 6980739.136638005,
        "Time(s)": 110
    },
    {
        "Altitude(m)": 609325.6061802283,
        "Argument of Periapsis(deg)": 0.0012502735095955685,
        "Eccentricity": 0.0,
        "Inclination(deg)": 60.0,
        "Latitude(deg)": 47.39660084336541,
        "Longitude(deg)": 15.887885676689747,
        "Mean Anomaly(deg)": -238.01322625445806,
        "RAAN(deg)": 334.99495941032313,
        "Satellite Name": "Test1 1481",
        "Satellite Number": 1481,
        "Semi-Major Axis(m)": 6980739.136638005,
        "Time(s)": 120
    },
    {
        "Altitude(m)": 609229.29890217,
        "Argument of Periapsis(deg)": 0.0013544629687285324,
        "Eccentricity": 0.0,
        "Inclination(deg)": 60.0,
        "Latitude(deg)": 46.97472665222712,
        "Longitude(deg)": 16.514026039210446,
        "Mean Anomaly(deg)": -237.39312010899621,
        "RAAN(deg)": 334.99453936118334,
        "Satellite Name": "Test1 1481",
        "Satellite Number": 1481,
        "Semi-Major Axis(m)": 6980739.136638005,
        "Time(s)": 130
    },
    {
        "Altitude(m)": 609132.2809391962,
        "Argument of Periapsis(deg)": 0.0014586524278614966,
        "Eccentricity": 0.0,
        "Inclination(deg)": 60.0,
        "Latitude(deg)": 46.54898928949606,
        "Longitude(deg)": 17.129710958304365,
        "Mean Anomaly(deg)": -236.77301396353437,
        "RAAN(deg)": 334.9941193120436,
        "Satellite Name": "Test1 1481",
        "Satellite Number": 1481,
        "Semi-Major Axis(m)": 6980739.136638005,
        "Time(s)": 140
    },
    {
        "Altitude(m)": 609034.6111069683,
        "Argument of Periapsis(deg)": 0.0015628418869944607,
        "Eccentricity": 0.0,
        "Inclination(deg)": 60.0,
        "Latitude(deg)": 46.11950321145654,
        "Longitude(deg)": 17.73516518655334,
        "Mean Anomaly(deg)": -236.15290781807255,
        "RAAN(deg)": 334.99369926290393,
        "Satellite Name": "Test1 1481",
        "Satellite Number": 1481,
        "Semi-Major Axis(m)": 6980739.136638005,
        "Time(s)": 150
    },
    {
        "Altitude(m)": 608936.3487620607,
        "Argument of Periapsis(deg)": 0.0016670313461274247,
        "Eccentricity": 0.0,
        "Inclination(deg)": 60.0,
        "Latitude(deg)": 45.686379509500455,
        "Longitude(deg)": 18.330612766853676,
        "Mean Anomaly(deg)": -235.5328016726107,
        "RAAN(deg)": 334.99327921376414,
        "Satellite Name": "Test1 1481",
        "Satellite Number": 1481,
        "Semi-Major Axis(m)": 6980739.136638005,
        "Time(s)": 160
    },
    {
        "Altitude(m)": 608837.55377289,
        "Argument of Periapsis(deg)": 0.0017712208052603888,
        "Eccentricity": 0.0,
        "Inclination(deg)": 60.0,
        "Latitude(deg)": 45.24972598329415,
        "Longitude(deg)": 18.916275665824017,
        "Mean Anomaly(deg)": -234.91269552714883,
        "RAAN(deg)": 334.9928591646244,
        "Satellite Name": "Test1 1481",
        "Satellite Number": 1481,
        "Semi-Major Axis(m)": 6980739.136638005,
        "Time(s)": 170
    },
    {
        "Altitude(m)": 608738.2864903652,
        "Argument of Periapsis(deg)": 0.001875410264393353,
        "Eccentricity": 0.0,
        "Inclination(deg)": 60.0,
        "Latitude(deg)": 44.809647216439956,
        "Longitude(deg)": 19.49237395942104,
        "Mean Anomaly(deg)": -234.2925893816871,
        "RAAN(deg)": 334.9924391154847,
        "Satellite Name": "Test1 1481",
        "Satellite Number": 1481,
        "Semi-Major Axis(m)": 6980739.136638005,
        "Time(s)": 180
    },
    {
        "Altitude(m)": 608638.6077182641,
        "Argument of Periapsis(deg)": 0.0019795997235263173,
        "Eccentricity": 0.0,
        "Inclination(deg)": 60.0,
        "Latitude(deg)": 44.366244654070435,
        "Longitude(deg)": 20.05912605513674,
        "Mean Anomaly(deg)": -233.67248323622516,
        "RAAN(deg)": 334.99201906634494,
        "Satellite Name": "Test1 1481",
        "Satellite Number": 1481,
        "Semi-Major Axis(m)": 6980739.136638005,
        "Time(s)": 190
    }
]